{
    "links": {
        "self": "http://www.neowsapp.com/rest/v1/neo/3843106?api_key=iIulBulltgU6a56xZRHN4H3l9WmuAYTsLGpBGhQ2"
    },
    "id": "3843106",
    "neo_reference_id": "3843106",
    "name": "(2019 NB1)",
    "designation": "2019 NB1",
    "nasa_jpl_url": "http://ssd.jpl.nasa.gov/sbdb.cgi?sstr=3843106",
    "absolute_magnitude_h": 22.9,
    "estimated_diameter": {
        "kilometers": {
            "estimated_diameter_min": 0.0699125232,
            "estimated_diameter_max": 0.1563291544
        },
        "meters": {
            "estimated_diameter_min": 69.9125232246,
            "estimated_diameter_max": 156.3291544087
        },
        "miles": {
            "estimated_diameter_min": 0.0434416145,
            "estimated_diameter_max": 0.097138403
        },
        "feet": {
            "estimated_diameter_min": 229.3718026961,
            "estimated_diameter_max": 512.8909429502
        }
    },
    "is_potentially_hazardous_asteroid": false,
    "close_approach_data": [
        {
            "close_approach_date": "2019-07-10",
            "close_approach_date_full": "2019-Jul-10 04:42",
            "epoch_date_close_approach": 1562733720000,
            "relative_velocity": {
                "kilometers_per_second": "4.5153692026",
                "kilometers_per_hour": "16255.3291292392",
                "miles_per_hour": "10100.4293692209"
            },
            "miss_distance": {
                "astronomical": "0.2382660083",
                "lunar": "92.6854772287",
                "kilometers": "35644087.335082321",
                "miles": "22148208.8439291898"
            },
            "orbiting_body": "Earth"
        }
    ],
    "orbital_data": {
        "orbit_id": "1",
        "orbit_determination_date": "2019-07-04 07:42:04",
        "first_observation_date": "2019-07-01",
        "last_observation_date": "2019-07-04",
        "data_arc_in_days": 3,
        "observations_used": 14,
        "orbit_uncertainty": "9",
        "minimum_orbit_intersection": ".190337",
        "jupiter_tisserand_invariant": "3.573",
        "epoch_osculation": "2458666.5",
        "eccentricity": ".4388791968205876",
        "semi_major_axis": "2.147983133948515",
        "inclination": "4.651113341808874",
        "ascending_node_longitude": "302.3593706113525",
        "orbital_period": "1149.85936663354",
        "perihelion_distance": "1.205278021337022",
        "perihelion_argument": "342.1918175233381",
        "aphelion_distance": "3.090688246560008",
        "perihelion_time": "2458663.531792017377",
        "mean_anomaly": ".9292917940675683",
        "mean_motion": ".3130817649935551",
        "equinox": "J2000",
        "orbit_class": {
            "orbit_class_type": "AMO",
            "orbit_class_description": "Near-Earth asteroid orbits similar to that of 1221 Amor",
            "orbit_class_range": "1.017 AU < q (perihelion) < 1.3 AU"
        }
    },
    "is_sentry_object": false
}